[{"OBJECT_NAME":"STARLINK-4397","OBJECT_ID":"2022-084S","EPOCH":"2026-03-09T16:57:51.050304","MEAN_MOTION":15.05643228,"ECCENTRICITY":0.00016999,"INCLINATION":97.6032,"RA_OF_ASC_NODE":131.2445,"ARG_OF_PERICENTER":89.1594,"MEAN_ANOMALY":270.9828,"EPHEMERIS_TYPE":0,"CLASSIFICATION_TYPE":"U","NORAD_CAT_ID":53205,"ELEMENT_SET_NO":999,"REV_AT_EPOCH":19938,"BSTAR":6.8880493e-5,"MEAN_MOTION_DOT":9.33e-6,"MEAN_MOTION_DDOT":0},{"OBJECT_NAME":"COSMOS 2251 DEB","OBJECT_ID":"1993-036HX","EPOCH":"2026-03-09T21:31:03.673056","MEAN_MOTION":15.04193551,"ECCENTRICITY":0.00046843,"INCLINATION":74.0171,"RA_OF_ASC_NODE":332.1487,"ARG_OF_PERICENTER":332.3762,"MEAN_ANOMALY":27.7177,"EPHEMERIS_TYPE":0,"CLASSIFICATION_TYPE":"U","NORAD_CAT_ID":34036,"ELEMENT_SET_NO":999,"REV_AT_EPOCH":89876,"BSTAR":0.0040391987,"MEAN_MOTION_DOT":0.00056541,"MEAN_MOTION_DDOT":0}]
